ONEWEB-0196             
1 48218U 21031J   25200.50621257  .00000179  00000+0  44915-3 0  9999
2 48218  87.9058 355.9008 0001871  91.1649 268.9695 13.14503153204523
ONEWEB-0183             
1 48219U 21031K   25200.48082861  .00000079  00000+0  17761-3 0  9997
2 48219  87.9052 355.9179 0001607  99.3803 260.7508 13.14486949204612
ONEWEB-0185             
1 48220U 21031L   25200.50699014  .00000169  00000+0  42127-3 0  9990
2 48220  87.9054 355.8795 0001320  91.6721 268.4560 13.14504212204544
ONEWEB-0187             
1 48221U 21031M   25200.48703309  .00000101  00000+0  23752-3 0  9990
2 48221  87.9055 355.9288 0001554  87.8086 272.3222 13.14504191204550
ONEWEB-0192             
1 48222U 21031N   25200.45704917 -.00000109  00000+0 -32900-3 0  9999
2 48222  87.9058 355.9280 0001823  90.9592 269.1746 13.14502877204466
ONEWEB-0219             
1 48223U 21031P   25200.51255822  .00000113  00000+0  27067-3 0  9994
2 48223  87.9054 355.8890 0001700  92.0352 268.0973 13.14503213204678
ONEWEB-0202             
1 48224U 21031Q   25200.49352775  .00000213  00000+0  54050-3 0  9990
2 48224  87.9053 355.9073 0002082  72.5584 287.5773 13.14503557204659
ONEWEB-0204             
1 48225U 21031R   25200.45149451 -.00000115  00000+0 -34333-3 0  9997
2 48225  87.9037 355.9127 0001681 103.2473 256.8845 13.14503605204546
